{"type": "FeatureCollection", "features": [ {"type": "Feature", "properties": {"norad_id": 31498, "name": "FENGYUN 1C DEB", "group": "fengyun-1c-debris", "lat": -25.248614832681813, "lon": -46.22486100205377, "alt_km": 1133.6902819278775, "timestamp": "2025-12-03T08:58:46.284501+00:00", "meta": {"OBJECT_NAME": "FENGYUN 1C DEB", "OBJECT_ID": "1999-025BWM", "EPOCH": "2025-11-30T09:36:20.130336", "MEAN_MOTION": 13.76941251, "ECCENTRICITY": 0.02170133, "INCLINATION": 98.4854, "RA_OF_ASC_NODE": 307.0815, "ARG_OF_PERICENTER": 178.1743, "MEAN_ANOMALY": 182.0252, "EPHEMERIS_TYPE": 0, "CLASSIFICATION_TYPE": "U", "NORAD_CAT_ID": 31498, "ELEMENT_SET_NO": 999, "REV_AT_EPOCH": 92564, "BSTAR": 0.0014956317, "MEAN_MOTION_DOT": 1.718e-05, "MEAN_MOTION_DDOT": 0}, "tle": {"line1": "1 31498U 99025BWM 25334.40023299  .00001718  00000+0  14956-2 0  9999", "line2": "2 31498  98.4854 307.0815 0217013 178.1743 182.0252 13.76941251925649"}}, "geometry": {"type": "Point", "coordinates": [-46.22486100205377, -25.248614832681813]}}, {"type": "Feature", "properties": {"norad_id": 31503, "name": "FENGYUN 1C DEB", "group": "fengyun-1c-debris", "lat": 27.59911305077719, "lon": 27.469210743126116, "alt_km": 798.5866459503386, "timestamp": "2025-12-03T08:58:46.284515+00:00", "meta": {"OBJECT_NAME": "FENGYUN 1C DEB", "OBJECT_ID": "1999-025BWS", "EPOCH": "2025-12-02T20:26:52.467360", "MEAN_MOTION": 14.22519865, "ECCENTRICITY": 0.0049245, "INCLINATION": 100.0996, "RA_OF_ASC_NODE": 201.5254, "ARG_OF_PERICENTER": 214.863, "MEAN_ANOMALY": 144.9315, "EPHEMERIS_TYPE": 0, "CLASSIFICATION_TYPE": "U", "NORAD_CAT_ID": 31503, "ELEMENT_SET_NO": 999, "REV_AT_EPOCH": 64106, "BSTAR": 0.0013567, "MEAN_MOTION_DOT": 3.011e-05, "MEAN_MOTION_DDOT": 0}, "tle": {"line1": "1 31503U 99025BWS 25336.85199615  .00003011  00000+0  13567-2 0  9998", "line2": "2 31503 100.0996 201.5254 0049245 214.8630 144.9315 14.22519865641063"}}, "geometry": {"type": "Point", "coordinates": [27.469210743126116, 27.59911305077719]}}, {"type": "Feature", "properties": {"norad_id": 31507, "name": "FENGYUN 1C DEB", "group": "fengyun-1c-debris", "lat": -46.803353730956225, "lon": 18.677548039017022, "alt_km": 800.7262175926699, "timestamp": "2025-12-03T08:58:46.284526+00:00", "meta": {"OBJECT_NAME": "FENGYUN 1C DEB", "OBJECT_ID": "1999-025BWW", "EPOCH": "2025-12-03T01:03:21.344256", "MEAN_MOTION": 14.52110629, "ECCENTRICITY": 0.0118026, "INCLINATION": 98.195, "RA_OF_ASC_NODE": 9.5268, "ARG_OF_PERICENTER": 107.7824, "MEAN_ANOMALY": 280.5874, "EPHEMERIS_TYPE": 0, "CLASSIFICATION_TYPE": "U", "NORAD_CAT_ID": 31507, "ELEMENT_SET_NO": 999, "REV_AT_EPOCH": 97880, "BSTAR": 0.00059207, "MEAN_MOTION_DOT": 2.578e-05, "MEAN_MOTION_DDOT": 0}, "tle": {"line1": "1 31507U 99025BWW 25337.04399704  .00002578  00000+0  59207-3 0  9994", "line2": "2 31507  98.1950   9.5268 0118026 107.7824 280.5874 14.52110629978804"}}, "geometry": {"type": "Point", "coordinates": [18.677548039017022, -46.803353730956225]}}, {"type": "Feature", "properties": {"norad_id": 31508, "name": "FENGYUN 1C DEB", "group": "fengyun-1c-debris", "lat": 10.740275118544528, "lon": 83.86627124557563, "alt_km": 665.6136749919742, "timestamp": "2025-12-03T08:58:46.284537+00:00", "meta": {"OBJECT_NAME": "FENGYUN 1C DEB", "OBJECT_ID": "1999-025BWX", "EPOCH": "2025-12-01T06:00:46.047744", "MEAN_MOTION": 14.62005114, "ECCENTRICITY": 0.0032762, "INCLINATION": 98.6301, "RA_OF_ASC_NODE": 83.3005, "ARG_OF_PERICENTER": 2.4168, "MEAN_ANOMALY": 357.7184, "EPHEMERIS_TYPE": 0, "CLASSIFICATION_TYPE": "U", "NORAD_CAT_ID": 31508, "ELEMENT_SET_NO": 999, "REV_AT_EPOCH": 96756, "BSTAR": 0.0032561, "MEAN_MOTION_DOT": 0.00016436, "MEAN_MOTION_DDOT": 0}, "tle": {"line1": "1 31508U 99025BWX 25335.25053296  .00016436  00000+0  32561-2 0  9990", "line2": "2 31508  98.6301  83.3005 0032762   2.4168 357.7184 14.62005114967568"}}, "geometry": {"type": "Point", "coordinates": [83.86627124557563, 10.740275118544528]}}, {"type": "Feature", "properties": {"norad_id": 31509, "name": "FENGYUN 1C DEB", "group": "fengyun-1c-debris", "lat": 13.686181987453276, "lon": -80.95998787224282, "alt_km": 878.5497041056506, "timestamp": "2025-12-03T08:58:46.284547+00:00", "meta": {"OBJECT_NAME": "FENGYUN 1C DEB", "OBJECT_ID": "1999-025BWY", "EPOCH": "2025-12-03T01:16:42.736224", "MEAN_MOTION": 13.94777899, "ECCENTRICITY": 0.0203247, "INCLINATION": 99.0229, "RA_OF_ASC_NODE": 96.5086, "ARG_OF_PERICENTER": 244.657, "MEAN_ANOMALY": 113.342, "EPHEMERIS_TYPE": 0, "CLASSIFICATION_TYPE": "U", "NORAD_CAT_ID": 31509, "ELEMENT_SET_NO": 999, "REV_AT_EPOCH": 93827, "BSTAR": 0.0031621, "MEAN_MOTION_DOT": 4.993e-05, "MEAN_MOTION_DDOT": 0}, "tle": {"line1": "1 31509U 99025BWY 25337.05327241  .00004993  00000+0  31621-2 0  9996", "line2": "2 31509  99.0229  96.5086 0203247 244.6570 113.3420 13.94777899938278"}}, "geometry": {"type": "Point", "coordinates": [-80.95998787224282, 13.686181987453276]}}, {"type": "Feature", "properties": {"norad_id": 31510, "name": "FENGYUN 1C DEB", "group": "fengyun-1c-debris", "lat": 20.093143689613836, "lon": -26.335969560935144, "alt_km": 784.6743638172129, "timestamp": "2025-12-03T08:58:46.284557+00:00", "meta": {"OBJECT_NAME": "FENGYUN 1C DEB", "OBJECT_ID": "1999-025BWZ", "EPOCH": "2025-11-29T05:42:38.354688", "MEAN_MOTION": 14.24508373, "ECCENTRICITY": 0.00379271, "INCLINATION": 98.5532, "RA_OF_ASC_NODE": 332.7926, "ARG_OF_PERICENTER": 11.269, "MEAN_ANOMALY": 49.5902, "EPHEMERIS_TYPE": 0, "CLASSIFICATION_TYPE": "U", "NORAD_CAT_ID": 31510, "ELEMENT_SET_NO": 999, "REV_AT_EPOCH": 96295, "BSTAR": 0.00053902457, "MEAN_MOTION_DOT": 1.216e-05, "MEAN_MOTION_DDOT": 0}, "tle": {"line1": "1 31510U 99025BWZ 25333.23794392  .00001216  00000+0  53902-3 0  9991", "line2": "2 31510  98.5532 332.7926 0037927  11.2690  49.5902 14.24508373962950"}}, "geometry": {"type": "Point", "coordinates": [-26.335969560935144, 20.093143689613836]}}, {"type": "Feature", "properties": {"norad_id": 31511, "name": "FENGYUN 1C DEB", "group": "fengyun-1c-debris", "lat": -72.60971238422059, "lon": -64.99223656246937, "alt_km": 726.9160839024362, "timestamp": "2025-12-03T08:58:46.284567+00:00", "meta": {"OBJECT_NAME": "FENGYUN 1C DEB", "OBJECT_ID": "1999-025BXA", "EPOCH": "2025-12-01T22:08:58.354368", "MEAN_MOTION": 14.27947565, "ECCENTRICITY": 0.01099992, "INCLINATION": 99.0667, "RA_OF_ASC_NODE": 144.1552, "ARG_OF_PERICENTER": 257.5157, "MEAN_ANOMALY": 101.3699, "EPHEMERIS_TYPE": 0, "CLASSIFICATION_TYPE": "U", "NORAD_CAT_ID": 31511, "ELEMENT_SET_NO": 999, "REV_AT_EPOCH": 95646, "BSTAR": 0.001332998, "MEAN_MOTION_DOT": 3.477e-05, "MEAN_MOTION_DDOT": 0}, "tle": {"line1": "1 31511U 99025BXA 25335.92289762  .00003477  00000+0  13330-2 0  9991", "line2": "2 31511  99.0667 144.1552 0109999 257.5157 101.3699 14.27947565956460"}}, "geometry": {"type": "Point", "coordinates": [-64.99223656246937, -72.60971238422059]}}, {"type": "Feature", "properties": {"norad_id": 31512, "name": "FENGYUN 1C DEB", "group": "fengyun-1c-debris", "lat": -35.78685511983204, "lon": -121.15248703252861, "alt_km": 839.6490299453981, "timestamp": "2025-12-03T08:58:46.284583+00:00", "meta": {"OBJECT_NAME": "FENGYUN 1C DEB", "OBJECT_ID": "1999-025BXB", "EPOCH": "2025-12-02T23:15:31.890240", "MEAN_MOTION": 14.43767616, "ECCENTRICITY": 0.0143809, "INCLINATION": 98.8038, "RA_OF_ASC_NODE": 232.0142, "ARG_OF_PERICENTER": 176.1635, "MEAN_ANOMALY": 202.8474, "EPHEMERIS_TYPE": 0, "CLASSIFICATION_TYPE": "U", "NORAD_CAT_ID": 31512, "ELEMENT_SET_NO": 999, "REV_AT_EPOCH": 65361, "BSTAR": 0.00056359, "MEAN_MOTION_DOT": 2.121e-05, "MEAN_MOTION_DDOT": 0}, "tle": {"line1": "1 31512U 99025BXB 25336.96911910  .00002121  00000+0  56359-3 0  9998", "line2": "2 31512  98.8038 232.0142 0143809 176.1635 202.8474 14.43767616653611"}}, "geometry": {"type": "Point", "coordinates": [-121.15248703252861, -35.78685511983204]}}, {"type": "Feature", "properties": {"norad_id": 31513, "name": "FENGYUN 1C DEB", "group": "fengyun-1c-debris", "lat": -12.778832961781738, "lon": -108.1339802577707, "alt_km": 772.7138962971367, "timestamp": "2025-12-03T08:58:46.284595+00:00", "meta": {"OBJECT_NAME": "FENGYUN 1C DEB", "OBJECT_ID": "1999-025BXC", "EPOCH": "2025-11-25T02:15:23.832576", "MEAN_MOTION": 14.32315683, "ECCENTRICITY": 0.00282412, "INCLINATION": 98.8622, "RA_OF_ASC_NODE": 65.435, "ARG_OF_PERICENTER": 176.3464, "MEAN_ANOMALY": 183.7931, "EPHEMERIS_TYPE": 0, "CLASSIFICATION_TYPE": "U", "NORAD_CAT_ID": 31513, "ELEMENT_SET_NO": 999, "REV_AT_EPOCH": 72616, "BSTAR": 0.0023967664, "MEAN_MOTION_DOT": 6.459e-05, "MEAN_MOTION_DDOT": 0}, "tle": {"line1": "1 31513U 99025BXC 25329.09402584  .00006459  00000+0  23968-2 0  9994", "line2": "2 31513  98.8622  65.4350 0028241 176.3464 183.7931 14.32315683726161"}}, "geometry": {"type": "Point", "coordinates": [-108.1339802577707, -12.778832961781738]}}, {"type": "Feature", "properties": {"norad_id": 31514, "name": "FENGYUN 1C DEB", "group": "fengyun-1c-debris", "lat": 42.58755464844923, "lon": 66.29336974011353, "alt_km": 781.7531311459743, "timestamp": "2025-12-03T08:58:46.284608+00:00", "meta": {"OBJECT_NAME": "FENGYUN 1C DEB", "OBJECT_ID": "1999-025BXD", "EPOCH": "2025-11-30T16:07:05.297376", "MEAN_MOTION": 14.20861654, "ECCENTRICITY": 0.00517375, "INCLINATION": 99.2458, "RA_OF_ASC_NODE": 234.8568, "ARG_OF_PERICENTER": 150.191, "MEAN_ANOMALY": 210.223, "EPHEMERIS_TYPE": 0, "CLASSIFICATION_TYPE": "U", "NORAD_CAT_ID": 31514, "ELEMENT_SET_NO": 999, "REV_AT_EPOCH": 69153, "BSTAR": 0.0016030637, "MEAN_MOTION_DOT": 3.466e-05, "MEAN_MOTION_DDOT": 0}, "tle": {"line1": "1 31514U 99025BXD 25334.67158909  .00003466  00000+0  16031-2 0  9992", "line2": "2 31514  99.2458 234.8568 0051737 150.1910 210.2230 14.20861654691530"}}, "geometry": {"type": "Point", "coordinates": [66.29336974011353, 42.58755464844923]}}]}